{
  "links" : {
    "next" : "https://api.nasa.gov/neo/rest/v1/feed?start_date=2002-08-23&end_date=2002-08-23&detailed=true&api_key=t0TVs3DtDT2H8Oy2Zy8m2eVrNsAVKAexjcZXUckd",
    "prev" : "https://api.nasa.gov/neo/rest/v1/feed?start_date=2002-08-21&end_date=2002-08-21&detailed=true&api_key=t0TVs3DtDT2H8Oy2Zy8m2eVrNsAVKAexjcZXUckd",
    "self" : "https://api.nasa.gov/neo/rest/v1/feed?start_date=2002-08-22&end_date=2002-08-22&detailed=true&api_key=t0TVs3DtDT2H8Oy2Zy8m2eVrNsAVKAexjcZXUckd"
  },
  "element_count" : 5,
  "near_earth_objects" : {
    "2002-08-22" : [ {
      "links" : {
        "self" : "https://api.nasa.gov/neo/rest/v1/neo/3724113?api_key=t0TVs3DtDT2H8Oy2Zy8m2eVrNsAVKAexjcZXUckd"
      },
      "neo_reference_id" : "3724113",
      "name" : "(2015 NB14)",
      "nasa_jpl_url" : "http://ssd.jpl.nasa.gov/sbdb.cgi?sstr=3724113",
      "absolute_magnitude_h" : 20.7,
      "estimated_diameter" : {
        "kilometers" : {
          "estimated_diameter_min" : 0.1925550782,
          "estimated_diameter_max" : 0.4305662442
        },
        "meters" : {
          "estimated_diameter_min" : 192.5550781879,
          "estimated_diameter_max" : 430.566244241
        },
        "miles" : {
          "estimated_diameter_min" : 0.1196481415,
          "estimated_diameter_max" : 0.2675413778
        },
        "feet" : {
          "estimated_diameter_min" : 631.7424027221,
          "estimated_diameter_max" : 1412.6189567557
        }
      },
      "is_potentially_hazardous_asteroid" : false,
      "close_approach_data" : [ {
        "close_approach_date" : "2002-08-22",
        "epoch_date_close_approach" : 1029999600000,
        "relative_velocity" : {
          "kilometers_per_second" : "4.8157474721",
          "kilometers_per_hour" : "17336.6908996219",
          "miles_per_hour" : "10772.345520379"
        },
        "miss_distance" : {
          "astronomical" : "0.463942605",
          "lunar" : "180.4736785889",
          "kilometers" : "69404832",
          "miles" : "43126160"
        },
        "orbiting_body" : "Earth"
      } ],
      "orbital_data" : {
        "orbit_id" : "37",
        "orbit_determination_date" : "2017-04-06 08:32:46",
        "orbit_uncertainty" : "5",
        "minimum_orbit_intersection" : ".275962",
        "jupiter_tisserand_invariant" : "3.530",
        "epoch_osculation" : "2458000.5",
        "eccentricity" : ".4207553368586992",
        "semi_major_axis" : "2.198835320022942",
        "inclination" : "9.403324760591122",
        "ascending_node_longitude" : "155.3444095117568",
        "orbital_period" : "1190.933422549027",
        "perihelion_distance" : "1.273663624249884",
        "perihelion_argument" : "144.6001630371678",
        "aphelion_distance" : "3.124007015796001",
        "perihelion_time" : "2458414.304931280538",
        "mean_anomaly" : "234.9134313972443",
        "mean_motion" : ".3022839003287607",
        "equinox" : "J2000"
      }
    }, {
      "links" : {
        "self" : "https://api.nasa.gov/neo/rest/v1/neo/3726511?api_key=t0TVs3DtDT2H8Oy2Zy8m2eVrNsAVKAexjcZXUckd"
      },
      "neo_reference_id" : "3726511",
      "name" : "(2015 QM3)",
      "nasa_jpl_url" : "http://ssd.jpl.nasa.gov/sbdb.cgi?sstr=3726511",
      "absolute_magnitude_h" : 20.4,
      "estimated_diameter" : {
        "kilometers" : {
          "estimated_diameter_min" : 0.2210828104,
          "estimated_diameter_max" : 0.4943561926
        },
        "meters" : {
          "estimated_diameter_min" : 221.0828103591,
          "estimated_diameter_max" : 494.3561926196
        },
        "miles" : {
          "estimated_diameter_min" : 0.137374447,
          "estimated_diameter_max" : 0.3071786018
        },
        "feet" : {
          "estimated_diameter_min" : 725.3373275385,
          "estimated_diameter_max" : 1621.9035709942
        }
      },
      "is_potentially_hazardous_asteroid" : false,
      "close_approach_data" : [ {
        "close_approach_date" : "2002-08-22",
        "epoch_date_close_approach" : 1029999600000,
        "relative_velocity" : {
          "kilometers_per_second" : "16.0600827698",
          "kilometers_per_hour" : "57816.2979712519",
          "miles_per_hour" : "35924.7991477482"
        },
        "miss_distance" : {
          "astronomical" : "0.101658252",
          "lunar" : "39.5450630188",
          "kilometers" : "15207859",
          "miles" : "9449725"
        },
        "orbiting_body" : "Earth"
      } ],
      "orbital_data" : {
        "orbit_id" : "14",
        "orbit_determination_date" : "2017-04-06 08:32:22",
        "orbit_uncertainty" : "6",
        "minimum_orbit_intersection" : ".0603378",
        "jupiter_tisserand_invariant" : "7.968",
        "epoch_osculation" : "2458000.5",
        "eccentricity" : ".5311266167611985",
        "semi_major_axis" : ".7061856960164784",
        "inclination" : "16.12663522341424",
        "ascending_node_longitude" : "159.7375444854408",
        "orbital_period" : "216.7588317773578",
        "perihelion_distance" : ".331111676486094",
        "perihelion_argument" : "324.5664297715997",
        "aphelion_distance" : "1.081259715546863",
        "perihelion_time" : "2457990.832877869166",
        "mean_anomaly" : "16.05546560001224",
        "mean_motion" : "1.660831981092108",
        "equinox" : "J2000"
      }
    } ]
  }
}